ONEWEB-0233             
1 48795U 21045AE  25049.82755683  .00000103  00000+0  23958-3 0  9992
2 48795  87.9128 355.5071 0002132  82.3916 277.7456 13.15547448180743
ONEWEB-0190             
1 48796U 21045AF  25049.89014151  .00000036  00000+0  62188-4 0  9992
2 48796  87.9125 355.4570 0002575  94.6884 265.4541 13.15550031180825
ONEWEB-0236             
1 48797U 21045AG  25049.90757087  .00000145  00000+0  35082-3 0  9990
2 48797  87.9133 355.4566 0001977  80.2071 279.9283 13.15550953180718
ONEWEB-0248             
1 48798U 21045AH  25049.92024366  .00000100  00000+0  23067-3 0  9991
2 48798  87.9126 355.4232 0002563  81.6017 278.5404 13.15546519180878
ONEWEB-0225             
1 48799U 21045AJ  25049.86638053 -.00000082  00000+0 -25174-3 0  9991
2 48799  87.9132 355.4578 0002190  85.6882 274.4499 13.15549289180875
ONEWEB-0215             
1 48800U 21045AK  25049.83626762  .00000168  00000+0  41298-3 0  9993
2 48800  87.9125 355.4237 0002559  86.2310 273.9113 13.15546952180741
ONEWEB-0216             
1 48801U 21045AL  25049.84577945  .00000116  00000+0  27329-3 0  9995
2 48801  87.9127 355.4658 0001741  87.8120 272.3210 13.15547810180755
ONEWEB-0239             
1 48802U 21045AM  25049.92659452  .00000066  00000+0  14135-3 0  9994
2 48802  87.9134 355.4473 0002731  81.6482 278.4958 13.15548799180801
